ONEWEB-0389             
1 50469U 21132A   25097.47697495  .00000030  00000+0  43250-4 0  9997
2 50469  87.9006  92.6481 0002162 100.1043 260.0332 13.17649967160709
ONEWEB-0390             
1 50470U 21132B   25097.47866120  .00000083  00000+0  18127-3 0  9994
2 50470  87.9005  92.6549 0001681  92.5038 267.6286 13.17651603160709
ONEWEB-0391             
1 50471U 21132C   25097.48034962  .00000050  00000+0  95921-4 0  9999
2 50471  87.9015  92.6615 0002207 113.1518 246.9846 13.17647313160708
ONEWEB-0392             
1 50472U 21132D   25097.51070782  .00000077  00000+0  16518-3 0  9997
2 50472  87.8999  92.6136 0002161 101.0053 259.1321 13.17652050160748
ONEWEB-0393             
1 50473U 21132E   25097.48384973 -.00000337  00000+0 -90059-3 0  9997
2 50473  87.9010  92.6252 0002043  94.9619 265.1746 13.17648397160736
ONEWEB-0394             
1 50474U 21132F   25097.41501004  .00000085  00000+0  18397-3 0  9990
2 50474  87.9095  62.0626 0002082  86.4996 273.6374 13.18685042164164
ONEWEB-0395             
1 50475U 21132G   25097.51246999 -.00000510  00000+0 -14745-2 0  9998
2 50475  87.8792 107.9369 0001869 101.1897 258.9441 13.11417831158614
ONEWEB-0396             
1 50476U 21132H   25097.25693166  .00000014  00000+0  37931-5 0  9994
2 50476  87.9099  62.1045 0002117  86.8411 273.2964 13.18687452164181
ONEWEB-0397             
1 50477U 21132J   25097.27116549 -.00000038  00000+0 -13025-3 0  9996
2 50477  87.9102  62.1032 0002169  83.2561 276.8817 13.18683862164162
ONEWEB-0398             
1 50478U 21132K   25097.55657860  .00000577  00000+0  15918-2 0  9992
2 50478  87.8786 107.8955 0001503  95.7982 264.3318 13.11415966158518
ONEWEB-0399             
1 50479U 21132L   25097.54300948  .00000429  00000+0  11738-2 0  9996
2 50479  87.8789 107.9201 0002365  93.7703 266.3696 13.11418942158500
ONEWEB-0400             
1 50480U 21132M   25097.32647394  .00000131  00000+0  29991-3 0  9994
2 50480  87.9095  62.0847 0001782  83.1553 276.9782 13.18688429164166
ONEWEB-0401             
1 50481U 21132N   25097.36916828  .00000077  00000+0  16142-3 0  9993
2 50481  87.9096  62.0691 0002214  79.8705 280.2676 13.18684448164175
ONEWEB-0402             
1 50482U 21132P   25097.25851162 -.00000299  00000+0 -79234-3 0  9990
2 50482  87.9096  62.0892 0002561  76.1229 284.0188 13.18684899164186
ONEWEB-0403             
1 50483U 21132Q   25097.28222872 -.00000006  00000+0 -49045-4 0  9998
2 50483  87.9097  62.0976 0001969  86.7507 273.3850 13.18684112164149
ONEWEB-0404             
1 50484U 21132R   25097.52434649 -.00000310  00000+0 -90928-3 0  9996
2 50484  87.8799 107.9194 0002198 100.9364 259.2011 13.11419244158593
ONEWEB-0405             
1 50485U 21132S   25097.60154079  .00000031  00000+0  45540-4 0  9991
2 50485  87.9097  62.0241 0002318  82.3257 277.8138 13.18685264164584
ONEWEB-0406             
1 50486U 21132T   25097.28696892  .00000093  00000+0  20294-3 0  9996
2 50486  87.9102  62.1051 0001732 101.1376 258.9951 13.18685181164179
ONEWEB-0407             
1 50487U 21132U   25097.28064230  .00000125  00000+0  28339-3 0  9996
2 50487  87.9096  62.0946 0002140  83.6795 276.4580 13.18684483164118
ONEWEB-0409             
1 50488U 21132V   25097.52265086 -.00000349  00000+0 -10208-2 0  9991
2 50488  87.8790 107.8909 0001888 101.7782 258.3558 13.11418587158482
ONEWEB-0412             
1 50489U 21132W   25097.26956729  .00000081  00000+0  17186-3 0  9998
2 50489  87.9101  62.1107 0002382  79.1903 280.9497 13.18688805164205
ONEWEB-0413             
1 50490U 21132X   25097.27432030  .00000099  00000+0  21926-3 0  9991
2 50490  87.9100  62.1214 0002261  76.3287 283.8097 13.18683731164149
ONEWEB-0414             
1 50491U 21132Y   25097.26009231 -.00000304  00000+0 -80290-3 0  9994
2 50491  87.9096  62.0912 0002279  84.3119 275.8273 13.18684804164172
ONEWEB-0417             
1 50492U 21132Z   25097.19212310  .00000130  00000+0  29739-3 0  9997
2 50492  87.9103  62.1282 0001996  89.5103 270.6258 13.18684386164146
ONEWEB-0418             
1 50493U 21132AA  25097.27734292  .00000020  00000+0  19030-4 0  9997
2 50493  87.9099  62.1027 0001975  95.2923 264.8435 13.18684273164214
ONEWEB-0419             
1 50494U 21132AB  25097.59838098  .00000053  00000+0  10058-3 0  9998
2 50494  87.9096  62.0454 0001736  89.6499 270.4832 13.18688347164170
ONEWEB-0420             
1 50495U 21132AC  25097.26168334  .00000089  00000+0  19174-3 0  9999
2 50495  87.9096  62.1216 0002037  76.2240 283.9119 13.18685380164125
ONEWEB-0421             
1 50496U 21132AD  25097.25534727  .00000049  00000+0  91971-4 0  9994
2 50496  87.9103  62.1112 0002325  83.4276 276.7121 13.18687874164166
ONEWEB-0424             
1 50497U 21132AE  25097.59364160  .00000084  00000+0  17960-3 0  9998
2 50497  87.9100  62.0357 0001532  87.8692 272.2616 13.18685420164236
ONEWEB-0426             
1 50498U 21132AF  25097.17630568  .00000094  00000+0  20672-3 0  9996
2 50498  87.9097  62.1246 0002458  96.8460 263.2952 13.18687878164121
ONEWEB-0427             
1 50499U 21132AG  25097.59205187  .00000083  00000+0  17690-3 0  9992
2 50499  87.9097  62.0227 0001966  90.4294 269.7063 13.18684848164205
ONEWEB-0429             
1 50500U 21132AH  25097.27590789  .00000089  00000+0  19262-3 0  9998
2 50500  87.9101  62.1098 0001951  78.9129 281.2223 13.18686294164139
ONEWEB-0430             
1 50501U 21132AJ  25097.26484032  .00000049  00000+0  92417-4 0  9991
2 50501  87.9099  62.1067 0001666  80.3874 279.7446 13.18684289164174
ONEWEB-0432             
1 50502U 21132AK  25097.44820902  .00000105  00000+0  23346-3 0  9999
2 50502  87.9098  62.0596 0001523 112.3564 247.7730 13.18685472164158
ONEWEB-0440             
1 50503U 21132AL  25097.28380954  .00000074  00000+0  15416-3 0  9994
2 50503  87.9101  62.0902 0002312  77.3705 282.7686 13.18685136164122
ONEWEB-0450             
1 50504U 21132AM  25097.27762347  .00000088  00000+0  19164-3 0  9993
2 50504  87.9100  62.1200 0001872  72.9339 287.1998 13.18687636164153
ONEWEB-0410             
1 51622U 22012A   25097.49553535  .00000107  00000+0  24232-3 0  9998
2 51622  87.9002  92.6160 0002923 114.7905 245.3531 13.17646500156324
ONEWEB-0411             
1 51623U 22012B   25097.54617498 -.00000442  00000+0 -13032-2 0  9993
2 51623  87.8806 123.1179 0001387  93.3235 266.8051 13.10369317152239
ONEWEB-0415             
1 51624U 22012C   25097.54286111 -.00000291  00000+0 -86915-3 0  9991
2 51624  87.8801 123.1267 0001647  95.0008 265.1307 13.10369773152231
ONEWEB-0416             
1 51625U 22012D   25097.55447090 -.00000620  00000+0 -18139-2 0  9996
2 51625  87.8811 123.1362 0001956  95.7220 264.4130 13.10371454152274
ONEWEB-0422             
1 51626U 22012E   25097.50565298  .00000055  00000+0  10808-3 0  9999
2 51626  87.9006  92.6200 0002218  68.2996 291.8372 13.17651089156436
ONEWEB-0423             
1 51627U 22012F   25097.49890201  .00000072  00000+0  15117-3 0  9990
2 51627  87.9007  92.6268 0002068  87.2552 272.8817 13.17646334156322
ONEWEB-0425             
1 51628U 22012G   25097.56443713 -.00000542  00000+0 -15888-2 0  9999
2 51628  87.8808 123.1080 0002334  99.1208 261.0183 13.10375374152271
ONEWEB-0428             
1 51629U 22012H   25097.54452058 -.00000400  00000+0 -11811-2 0  9995
2 51629  87.8805 123.1320 0001909  88.8943 271.2403 13.10369178152233
ONEWEB-0431             
1 51630U 22012J   25097.59087652  .00000583  00000+0  16324-2 0  9990
2 51630  87.8801 123.1001 0001513  81.1955 278.9343 13.10373798152293
ONEWEB-0434             
1 51631U 22012K   25097.56775806 -.00000399  00000+0 -11784-2 0  9995
2 51631  87.8810 123.1398 0002608 101.6809 258.4611 13.10375934152278
ONEWEB-0435             
1 51632U 22012L   25097.57606496  .00000022  00000+0  26556-4 0  9991
2 51632  87.8812 123.1304 0002072  81.0511 279.0851 13.10376250152260
ONEWEB-0436             
1 51633U 22012M   25097.49046978  .00000063  00000+0  12966-3 0  9990
2 51633  87.9002  92.6203 0001885  80.6316 279.5029 13.17651613156307
ONEWEB-0438             
1 51634U 22012N   25097.55945304 -.00000697  00000+0 -20337-2 0  9994
2 51634  87.8811 123.1340 0002144  97.4220 262.7151 13.10374415152295
ONEWEB-0439             
1 51635U 22012P   25097.56277327 -.00000564  00000+0 -16507-2 0  9996
2 51635  87.8810 123.1211 0002025  91.9522 268.1837 13.10374785152273
ONEWEB-0442             
1 51636U 22012Q   25097.48287513  .00000010  00000+0 -67438-5 0  9993
2 51636  87.9004  92.6666 0002192 106.5862 253.5510 13.17651224156294
ONEWEB-0443             
1 51637U 22012R   25097.50228902  .00000114  00000+0  25998-3 0  9991
2 51637  87.9006  92.6760 0002311  89.4838 270.6558 13.17648243156342
ONEWEB-0444             
1 51638U 22012S   25097.55281193 -.00000606  00000+0 -17712-2 0  9990
2 51638  87.8803 123.1296 0002103  90.3029 269.8339 13.10370520152282
ONEWEB-0445             
1 51639U 22012T   25097.57440631 -.00000044  00000+0 -16215-3 0  9991
2 51639  87.8802 123.0836 0001914  98.8320 261.3024 13.10376335152296
ONEWEB-0446             
1 51640U 22012U   25097.55115447 -.00000626  00000+0 -18302-2 0  9999
2 51640  87.8810 123.1394 0001778  99.1601 260.9727 13.10370396152275
ONEWEB-0448             
1 51641U 22012V   25097.55613185 -.00000759  00000+0 -22099-2 0  9997
2 51641  87.8808 123.1384 0002095  94.6575 265.4792 13.10372144152247
ONEWEB-0449             
1 51642U 22012W   25097.56111489 -.00000615  00000+0 -17969-2 0  9990
2 51642  87.8805 123.1164 0002181  99.2640 260.8734 13.10374701152258
ONEWEB-0451             
1 51643U 22012X   25097.48708694 -.00000343  00000+0 -91618-3 0  9994
2 51643  87.8996  92.6124 0002142  93.6537 266.4839 13.17648129156286
ONEWEB-0452             
1 51644U 22012Y   25097.48540017 -.00000071  00000+0 -21679-3 0  9996
2 51644  87.9005  92.6708 0002327  91.0082 269.1316 13.17651178156298
